HIMAWARI-8              
1 40267U 14060A   23211.78624925 -.00000273  00000+0  00000+0 0  9993
2 40267   0.0275  71.7063 0000505  80.4279 219.7222  1.00270063 32312
